OBJECT_NAME,OBJECT_ID,EPOCH,MEAN_MOTION,ECCENTRICITY,INCLINATION,RA_OF_ASC_NODE,ARG_OF_PERICENTER,MEAN_ANOMALY,EPHEMERIS_TYPE,CLASSIFICATION_TYPE,NORAD_CAT_ID,ELEMENT_SET_NO,REV_AT_EPOCH,BSTAR,MEAN_MOTION_DOT,MEAN_MOTION_DDOT
BEIDOU-3 M14 (C33),2018-072B,2026-05-21T00:23:47.138784,1.86231174,.00066448,56.6039,63.5506,349.8463,10.1373,0,U,43623,999,5214,0,-.43E-6,0
BEIDOU-3 M16 (C35),2018-078A,2026-05-20T02:21:37.790784,1.86232228,.00078157,54.1165,300.9702,40.0610,319.9715,0,U,43647,999,5163,0,-.57E-6,0
BEIDOU-3 M15 (C34),2018-078B,2026-05-20T18:21:02.227104,1.86232153,.00049171,54.1122,300.9472,54.6309,305.3913,0,U,43648,999,5166,0,-.59E-6,0
BEIDOU-3 G1 (C59),2018-085A,2026-05-21T13:14:17.559168,1.00271296,.00078554,2.8021,98.0946,341.7545,157.8860,0,U,43683,999,2779,0,-.116E-5,0
BEIDOU-3 M17 (C36),2018-093A,2026-05-18T08:32:49.536096,1.86228319,.00096858,54.1671,183.3085,290.9034,146.3367,0,U,43706,999,5098,0,.68E-6,0
BEIDOU-3 M18 (C37),2018-093B,2026-05-21T07:49:06.059712,1.86226529,.000765,54.1677,183.1996,320.9348,39.0783,0,U,43707,999,5103,0,.34E-6,0
BEIDOU-3 IGSO-1 (C38),2019-023A,2026-05-12T18:25:31.496160,1.00250503,.00238565,58.6468,38.0171,234.3090,349.8662,0,U,44204,999,685,0,-.227E-5,0
BEIDOU-2 G8 (C01),2019-027A,2026-05-21T14:52:32.791872,1.00269941,.00106579,1.5925,74.4434,280.5771,251.8970,0,U,44231,999,2581,0,-.255E-5,0
BEIDOU-3 IGSO-2 (C39),2019-035A,2026-05-19T15:14:57.732288,1.00275192,.00395304,55.2397,159.1126,216.4700,210.4277,0,U,44337,999,2538,0,-.79E-6,0
BEIDOU-3 M24 (C46),2019-061A,2026-05-18T17:02:24.025920,1.86229135,.00081049,54.3946,183.7224,2.2615,357.8273,0,U,44542,999,4524,0,.63E-6,0
BEIDOU-3 M23 (C45),2019-061B,2026-05-19T09:26:53.979648,1.86227410,.00053348,54.3929,183.6676,341.1368,29.0987,0,U,44543,999,4526,0,.53E-6,0
BEIDOU-3 IGSO-3 (C40),2019-073A,2026-04-30T20:24:33.185376,1.00251230,.00424046,54.8842,281.4069,188.8195,170.9972,0,U,44709,999,2398,0,-.212E-5,0
BEIDOU-3 M22 (C44),2019-078A,2026-05-20T16:43:58.838592,1.86227051,.00070063,53.9622,300.7946,49.4418,310.5953,0,U,44793,999,4413,0,-.59E-6,0
BEIDOU-3 M21 (C43),2019-078B,2026-05-21T08:58:47.936352,1.86227517,.00049371,53.9345,300.7323,47.8274,312.1918,0,U,44794,999,4415,0,-.62E-6,0
BEIDOU-3 M19 (C41),2019-090A,2026-05-21T08:30:10.637856,1.86231198,.00189521,56.5372,63.6772,297.3631,246.4446,0,U,44864,999,4373,0,-.45E-6,0
BEIDOU-3 M20 (C42),2019-090B,2026-05-21T05:18:21.503808,1.86231080,.0016692,56.5382,63.7162,310.3692,233.7260,0,U,44865,999,4371,0,-.44E-6,0
BEIDOU-3 G2 (C60),2020-017A,2026-05-21T14:34:10.011648,1.00271077,.00022877,2.8125,46.9384,9.2300,121.6649,0,U,45344,999,2299,0,-.148E-5,0
BEIDOU-3 G3 (C61),2020-040A,2026-05-21T14:42:48.726144,1.00270160,.0003036,2.3838,67.3689,332.7419,170.3960,0,U,45807,999,2180,0,-.361E-5,0
BEIDOU-3 G4 (C62),2023-066A,2026-05-21T14:51:17.911584,1.00273083,.00036098,0.5197,325.2134,172.2100,104.7181,0,U,56564,999,1112,0,-.289E-5,0
BEIDOU-3 M28 (C50),2023-207A,2026-05-20T21:56:41.174016,1.86229665,.00040428,55.7298,63.2230,334.1810,25.7958,0,U,58654,999,1633,0,-.45E-6,0
BEIDOU-3 M26 (C48),2023-207B,2026-05-20T04:11:51.462816,1.86229621,.00041976,55.7314,63.2344,311.9075,48.0520,0,U,58655,999,1630,0,-.44E-6,0
BEIDOU-3 M25 (C47),2024-168B,2026-05-20T12:52:41.477952,1.86229824,.0002977,54.4989,303.2022,311.8004,47.9125,0,U,61186,999,1126,0,-.6E-6,0
BEIDOU-3 M27 (C49),2024-168C,2026-05-21T09:12:41.165856,1.86229956,.00021513,54.4934,303.1556,47.5599,295.1888,0,U,61187,999,875,0,-.63E-6,0
