BEIDOU-3 M14 (C33)      
1 43623U 18072B   26141.01651781 -.00000043  00000+0  00000+0 0  9995
2 43623  56.6039  63.5506 0006644 349.8463  10.1373  1.86231174 52141
BEIDOU-3 M16 (C35)      
1 43647U 18078A   26140.09835406 -.00000057  00000+0  00000+0 0  9997
2 43647  54.1165 300.9702 0007815  40.0610 319.9715  1.86232228 51635
BEIDOU-3 M15 (C34)      
1 43648U 18078B   26140.76460911 -.00000059  00000+0  00000+0 0  9999
2 43648  54.1122 300.9472 0004917  54.6309 305.3913  1.86232153 51668
BEIDOU-3 G1 (C59)       
1 43683U 18085A   26141.55159212 -.00000116  00000+0  00000+0 0  9997
2 43683   2.8021  98.0946 0007855 341.7545 157.8860  1.00271296 27797
BEIDOU-3 M17 (C36)      
1 43706U 18093A   26138.35612889  .00000068  00000+0  00000+0 0  9995
2 43706  54.1671 183.3085 0009685 290.9034 146.3367  1.86228319 50981
BEIDOU-3 M18 (C37)      
1 43707U 18093B   26141.32576458  .00000034  00000+0  00000+0 0  9991
2 43707  54.1677 183.1996 0007650 320.9348  39.0783  1.86226529 51037
BEIDOU-3 IGSO-1 (C38)   
1 44204U 19023A   26132.76772565 -.00000227  00000+0  00000+0 0  9998
2 44204  58.6468  38.0171 0023856 234.3090 349.8662  1.00250503  6851
BEIDOU-2 G8 (C01)       
1 44231U 19027A   26141.61982398 -.00000255  00000+0  00000+0 0  9994
2 44231   1.5925  74.4434 0010657 280.5771 251.8970  1.00269941 25813
BEIDOU-3 IGSO-2 (C39)   
1 44337U 19035A   26139.63539042 -.00000079  00000+0  00000+0 0  9997
2 44337  55.2397 159.1126 0039530 216.4700 210.4277  1.00275192 25387
BEIDOU-3 M24 (C46)      
1 44542U 19061A   26138.71000030  .00000063  00000+0  00000+0 0  9994
2 44542  54.3946 183.7224 0008104   2.2615 357.8273  1.86229135 45245
BEIDOU-3 M23 (C45)      
1 44543U 19061B   26139.39368032  .00000053  00000+0  00000+0 0  9998
2 44543  54.3929 183.6676 0005334 341.1368  29.0987  1.86227410 45265
BEIDOU-3 IGSO-3 (C40)   
1 44709U 19073A   26120.85038409 -.00000212  00000+0  00000+0 0  9996
2 44709  54.8842 281.4069 0042404 188.8195 170.9972  1.00251230 23982
BEIDOU-3 M22 (C44)      
1 44793U 19078A   26140.69720878 -.00000059  00000+0  00000+0 0  9995
2 44793  53.9622 300.7946 0007006  49.4418 310.5953  1.86227051 44138
BEIDOU-3 M21 (C43)      
1 44794U 19078B   26141.37416593 -.00000062  00000+0  00000+0 0  9992
2 44794  53.9345 300.7323 0004937  47.8274 312.1918  1.86227517 44150
BEIDOU-3 M19 (C41)      
1 44864U 19090A   26141.35428979 -.00000045  00000+0  00000+0 0  9994
2 44864  56.5372  63.6772 0018952 297.3631 246.4446  1.86231198 43739
BEIDOU-3 M20 (C42)      
1 44865U 19090B   26141.22108222 -.00000044  00000+0  00000+0 0  9996
2 44865  56.5382  63.7162 0016692 310.3692 233.7260  1.86231080 43718
BEIDOU-3 G2 (C60)       
1 45344U 20017A   26141.60706032 -.00000148  00000+0  00000+0 0  9990
2 45344   2.8125  46.9384 0002287   9.2300 121.6649  1.00271077 22993
BEIDOU-3 G3 (C61)       
1 45807U 20040A   26141.61306396 -.00000361  00000+0  00000+0 0  9997
2 45807   2.3838  67.3689 0003036 332.7419 170.3960  1.00270160 21804
BEIDOU-3 G4 (C62)       
1 56564U 23066A   26141.61895731 -.00000289  00000+0  00000+0 0  9995
2 56564   0.5197 325.2134 0003609 172.2100 104.7181  1.00273083 11122
BEIDOU-3 M28 (C50)      
1 58654U 23207A   26140.91436544 -.00000045  00000+0  00000+0 0  9999
2 58654  55.7298  63.2230 0004042 334.1810  25.7958  1.86229665 16336
BEIDOU-3 M26 (C48)      
1 58655U 23207B   26140.17490119 -.00000044  00000+0  00000+0 0  9995
2 58655  55.7314  63.2344 0004197 311.9075  48.0520  1.86229621 16301
BEIDOU-3 M25 (C47)      
1 61186U 24168B   26140.53659118 -.00000060  00000+0  00000+0 0  9999
2 61186  54.4989 303.2022 0002977 311.8004  47.9125  1.86229824 11267
BEIDOU-3 M27 (C49)      
1 61187U 24168C   26141.38380979 -.00000063  00000+0  00000+0 0  9993
2 61187  54.4934 303.1556 0002151  47.5599 295.1888  1.86229956  8754
